NORAD_CAT_ID,OBJECT_NAME,OBJECT_TYPE,EPOCH,MEAN_MOTION,ECCENTRICITY,INCLINATION,RA_OF_ASC_NODE,ARG_OF_PERICENTER,MEAN_ANOMALY,BSTAR,MEAN_MOTION_DOT,MEAN_MOTION_DDOT,TLE_LINE0,TLE_LINE1,TLE_LINE2,SEMIMAJOR_AXIS,PERIOD,APOGEE,PERIGEE,DECAYED
56457.0,STARLINK-5994,PAYLOAD,2023-08-06 10:06:09,14.98321749,0.000254,70.0026,10.3555,254.1463,105.9416,-3.2164e-05,-4.77e-06,0.0,0 STARLINK-5994,1 56457U 23064K   23218.42094299 -.00000477  00000-0 -32164-4 0  9997,2 56457  70.0026  10.3555 0002540 254.1463 105.9416 14.98321749 13861,6950.218,96.108,573.849,570.318,0.0
56457.0,STARLINK-5994,PAYLOAD,2023-08-06 18:06:50,14.98314892,0.0003265,70.0001,9.5113,267.7264,92.3521,-0.00011366,-1.448e-05,0.0,0 STARLINK-5994,1 56457U 23064K   23218.75475292 -.00001448  00000-0 -11366-3 0  9998,2 56457  70.0001   9.5113 0003265 267.7264  92.3521 14.98314892 13911,6950.24,96.108,574.374,569.835,0.0
56457.0,STARLINK-5994,PAYLOAD,2023-08-07 10:08:11,14.98326427,0.0003368,69.9998,7.8281,267.4352,92.6422,-0.00012132,-1.54e-05,0.0,0 STARLINK-5994,1 56457U 23064K   23219.42235026 -.00001540  00000-0 -12132-3 0  9997,2 56457  69.9998   7.8281 0003368 267.4352  92.6422 14.98326427 14011,6950.204,96.107,574.41,569.728,0.0
56457.0,STARLINK-5994,PAYLOAD,2023-08-07 18:08:50,14.98331138,0.0003312,69.9999,6.9857,266.928,93.15,-3.2192e-05,-4.77e-06,0.0,0 STARLINK-5994,1 56457U 23064K   23219.75614528 -.00000477  00000-0 -32192-4 0  9998,2 56457  69.9999   6.9857 0003312 266.9280  93.1500 14.98331138 14067,6950.189,96.107,574.356,569.752,0.0
56457.0,STARLINK-5994,PAYLOAD,2023-08-08 16:34:42,14.98336789,0.0003394,70.0001,4.6292,266.3373,93.7398,0.00027941,3.243e-05,0.0,0 STARLINK-5994,1 56457U 23064K   23220.69077236  .00003243  00000-0  27941-3 0  9999,2 56457  70.0001   4.6292 0003394 266.3373  93.7398 14.98336789 14203,6950.172,96.107,574.396,569.678,0.0
56457.0,STARLINK-5994,PAYLOAD,2023-08-09 15:00:36,14.98330882,0.0003175,70.0006,2.2723,265.9305,94.1491,6.8183e-06,-1.2e-07,0.0,0 STARLINK-5994,1 56457U 23064K   23221.62542145 -.00000012  00000-0  68183-5 0  9996,2 56457  70.0006   2.2723 0003175 265.9305  94.1491 14.98330882 14340,6950.19,96.107,574.262,569.848,0.0
56457.0,STARLINK-5994,PAYLOAD,2023-08-10 15:02:37,14.98334956,0.0002917,70.0016,359.7492,261.7795,98.3033,-0.00014589,-1.833e-05,0.0,0 STARLINK-5994,1 56457U 23064K   23222.62681987 -.00001833  00000-0 -14589-3 0  9997,2 56457  70.0016 359.7492 0002917 261.7795  98.3033 14.98334956 14494,6950.178,96.107,574.07,570.015,0.0
56457.0,STARLINK-5994,PAYLOAD,2023-08-11 18:16:53,14.98332843,0.0003218,70.0007,356.8863,271.3333,88.7457,2.9622e-05,2.6e-06,0.0,0 STARLINK-5994,1 56457U 23064K   23223.76173383  .00000260  00000-0  29622-4 0  9995,2 56457  70.0007 356.8863 0003218 271.3333  88.7457 14.98332843 14669,6950.184,96.107,574.286,569.813,0.0
56457.0,STARLINK-5994,PAYLOAD,2023-08-12 02:17:34,14.98325006,0.0003227,70.0008,356.0445,280.5878,79.4918,2.0998e-05,1.58e-06,0.0,0 STARLINK-5994,1 56457U 23064K   23224.09553974  .00000158  00000-0  20998-4 0  9993,2 56457  70.0008 356.0445 0003227 280.5878  79.4918 14.98325006 14712,6950.208,96.107,574.316,569.831,0.0
56457.0,STARLINK-5994,PAYLOAD,2023-08-13 02:19:35,14.98330122,0.000331,69.9999,353.5196,269.7983,90.2797,-4.807e-05,-6.67e-06,0.0,0 STARLINK-5994,1 56457U 23064K   23225.09693720 -.00000667  00000-0 -48070-4 0  9996,2 56457  69.9999 353.5196 0003310 269.7983  90.2797 14.98330122 14869,6950.193,96.107,574.358,569.757,0.0
56457.0,STARLINK-5994,PAYLOAD,2023-08-14 02:21:36,14.98330067,0.0003128,70.0014,350.9956,268.0655,92.0145,-2.7583e-05,-4.22e-06,0.0,0 STARLINK-5994,1 56457U 23064K   23226.09833805 -.00000422  00000-0 -27583-4 0  9992,2 56457  70.0014 350.9956 0003128 268.0655  92.0145 14.98330067 15013,6950.193,96.107,574.232,569.884,0.0
56457.0,STARLINK-5994,PAYLOAD,2023-08-14 19:59:04,14.98335458,0.0003182,70.0012,349.1437,271.2192,88.8602,4.3712e-05,4.29e-06,0.0,0 STARLINK-5994,1 56457U 23064K   23226.83269191  .00000429  00000-0  43712-4 0  9992,2 56457  70.0012 349.1437 0003182 271.2192  88.8602 14.98335458 15129,6950.176,96.107,574.253,569.829,0.0
56457.0,STARLINK-5994,PAYLOAD,2023-08-15 10:24:17,14.98330282,0.0003097,70.0016,347.6288,273.4939,86.5866,3.1951e-05,2.88e-06,0.0,0 STARLINK-5994,1 56457U 23064K   23227.43353494  .00000288  00000-0  31951-4 0  9994,2 56457  70.0016 347.6288 0003097 273.4939  86.5866 14.98330282 15215,6950.192,96.107,574.209,569.905,0.0
56457.0,STARLINK-5994,PAYLOAD,2023-08-16 10:26:18,14.98331991,0.0003054,70.0012,345.1039,271.654,88.4269,-5.8641e-05,-7.93e-06,0.0,0 STARLINK-5994,1 56457U 23064K   23228.43493502 -.00000793  00000-0 -58641-4 0  9998,2 56457  70.0012 345.1039 0003054 271.6540  88.4269 14.98331991 15361,6950.187,96.107,574.174,569.929,0.0
56457.0,STARLINK-5994,PAYLOAD,2023-08-17 10:28:19,14.98333295,0.0003101,70.0012,342.5798,270.0439,90.0365,-2.0513e-05,-3.38e-06,0.0,0 STARLINK-5994,1 56457U 23064K   23229.43633138 -.00000338  00000-0 -20513-4 0  9992,2 56457  70.0012 342.5798 0003101 270.0439  90.0365 14.98333295 15519,6950.183,96.107,574.203,569.892,0.0
56457.0,STARLINK-5994,PAYLOAD,2023-08-18 10:30:20,14.98324441,0.0003135,70.0008,340.0546,269.6592,90.4208,-1.8184e-05,-3.1e-06,0.0,0 STARLINK-5994,1 56457U 23064K   23230.43773572 -.00000310  00000-0 -18184-4 0  9992,2 56457  70.0008 340.0546 0003135 269.6592  90.4208 14.98324441 15668,6950.21,96.107,574.254,569.896,0.0
56457.0,STARLINK-5994,PAYLOAD,2023-08-19 13:44:37,14.98331255,0.0003248,70.0007,337.1926,268.1919,91.8868,-2.9185e-05,-4.41e-06,0.0,0 STARLINK-5994,1 56457U 23064K   23231.57265249 -.00000441  00000-0 -29185-4 0  9993,2 56457  70.0007 337.1926 0003248 268.1919  91.8868 14.98331255 15835,6950.189,96.107,574.311,569.797,0.0
56457.0,STARLINK-5994,PAYLOAD,2023-08-20 16:58:53,14.98330456,0.000335,70.0007,334.3312,268.5186,91.5589,0.00013271,1.491e-05,0.0,0 STARLINK-5994,1 56457U 23064K   23232.70756873  .00001491  00000-0  13271-3 0  9999,2 56457  70.0007 334.3312 0003350 268.5186  91.5589 14.98330456 16006,6950.191,96.107,574.385,569.728,0.0
56457.0,STARLINK-5994,PAYLOAD,2023-08-21 10:36:23,14.98317754,0.0003212,70.0012,332.4802,267.8563,92.2229,0.00020437,2.346e-05,0.0,0 STARLINK-5994,1 56457U 23064K   23233.44193496  .00002346  00000-0  20437-3 0  9999,2 56457  70.0012 332.4802 0003212 267.8563  92.2229 14.98317754 16110,6950.231,96.108,574.328,569.863,0.0
56457.0,STARLINK-5994,PAYLOAD,2023-08-21 17:00:55,14.98329099,0.0002893,70.0013,331.8072,264.887,95.1959,6.5842e-05,6.93e-06,0.0,0 STARLINK-5994,1 56457U 23064K   23233.70897115  .00000693  00000-0  65842-4 0  9990,2 56457  70.0013 331.8072 0002893 264.8870  95.1959 14.98329099 16156,6950.196,96.107,574.071,570.05,0.0
56457.0,STARLINK-5994,PAYLOAD,2023-08-23 12:16:32,14.98328181,0.0003084,70.0013,327.2627,267.4542,92.6264,4.7449e-06,-3.6e-07,0.0,0 STARLINK-5994,1 56457U 23064K   23235.51149186 -.00000036  00000-0  47449-5 0  9995,2 56457  70.0013 327.2627 0003084 267.4542  92.6264 14.98328181 16421,6950.199,96.107,574.207,569.92,0.0
56457.0,STARLINK-5994,PAYLOAD,2023-08-24 10:42:25,14.98327682,0.000297,70.0016,324.9072,257.8957,102.1869,-9.3667e-07,-1.04e-06,0.0,0 STARLINK-5994,1 56457U 23064K   23236.44613109 -.00000104  00000-0 -93667-6 0  9990,2 56457  70.0016 324.9072 0002970 257.8957 102.1869 14.98327682 16207,6950.2,96.107,574.129,570.001,0.0
56457.0,STARLINK-5994,PAYLOAD,2023-08-25 10:44:26,14.98328976,0.000358,69.9996,322.3801,271.201,88.8739,2.6096e-06,-6.2e-07,0.0,0 STARLINK-5994,1 56457U 23064K   23237.44753012 -.00000062  00000-0  26096-5 0  9992,2 56457  69.9996 322.3801 0003580 271.2010  88.8739 14.98328976 16710,6950.196,96.107,574.549,569.573,0.0
56457.0,STARLINK-5994,PAYLOAD,2023-08-25 12:20:34,14.98328933,0.0003569,69.9996,322.2118,270.9852,89.0898,2.159e-06,-6.7e-07,0.0,0 STARLINK-5994,1 56457U 23064K   23237.51429018 -.00000067  00000-0  21590-5 0  9995,2 56457  69.9996 322.2118 0003569 270.9852  89.0898 14.98328933 16360,6950.196,96.107,574.542,569.581,0.0
56457.0,STARLINK-5994,PAYLOAD,2023-08-25 15:32:50,14.98331142,0.0003488,69.9998,321.8754,269.6399,90.436,2.3203e-05,1.84e-06,0.0,0 STARLINK-5994,1 56457U 23064K   23237.64780809  .00000184  00000-0  23203-4 0  9998,2 56457  69.9998 321.8754 0003488 269.6399  90.4360 14.98331142 16382,6950.189,96.107,574.479,569.63,0.0
56457.0,STARLINK-5994,PAYLOAD,2023-08-26 10:46:27,14.98323243,0.0003348,69.9999,319.8556,268.3012,91.7764,0.00010085,1.11e-05,0.0,0 STARLINK-5994,1 56457U 23064K   23238.44893179  .00001110  00000-0  10085-3 0  9995,2 56457  69.9999 319.8556 0003348 268.3012  91.7764 14.98323243 16861,6950.214,96.107,574.406,569.752,0.0
56457.0,STARLINK-5994,PAYLOAD,2023-08-26 12:22:35,14.98330219,0.0003261,70.0002,319.6872,267.18,92.8986,-4.1301e-06,-1.42e-06,0.0,0 STARLINK-5994,1 56457U 23064K   23238.51568968 -.00000142  00000-0 -41301-5 0  9991,2 56457  70.0002 319.6872 0003261 267.1800  92.8986 14.98330219 16515,6950.192,96.107,574.324,569.791,0.0
56457.0,STARLINK-5994,PAYLOAD,2023-08-26 15:34:51,14.98332138,0.0003241,70.0002,319.3506,267.1509,92.928,1.6521e-05,1.04e-06,0.0,0 STARLINK-5994,1 56457U 23064K   23238.64920775  .00000104  00000-0  16521-4 0  9994,2 56457  70.0002 319.3506 0003241 267.1509  92.9280 14.98332138 16891,6950.186,96.107,574.304,569.799,0.0
56457.0,STARLINK-5994,PAYLOAD,2023-08-27 09:12:20,14.98329018,0.0003151,70.0003,317.4991,267.0091,93.0708,1.4209e-05,7.7e-07,0.0,0 STARLINK-5994,1 56457U 23064K   23239.38356958  .00000077  00000-0  14209-4 0  9992,2 56457  70.0003 317.4991 0003151 267.0091  93.0708 14.98329018 16647,6950.196,96.107,574.251,569.871,0.0
56457.0,STARLINK-5994,PAYLOAD,2023-08-27 15:36:52,14.98330402,0.0003156,70.0003,316.8259,267.3263,92.7535,2.8147e-05,2.43e-06,0.0,0 STARLINK-5994,1 56457U 23064K   23239.65060842  .00000243  00000-0  28147-4 0  9997,2 56457  70.0003 316.8259 0003156 267.3263  92.7535 14.98330402 17044,6950.192,96.107,574.25,569.863,0.0
